GLOBALSTAR M057         
1 25943U 99058A   25199.53252317 -.00000040  00000+0  47740-3 0  9997
2 25943  51.9973 259.2493 0002835  87.4721 272.6453 12.24826514170776
GLOBALSTAR M059         
1 25944U 99058B   25200.51908515 -.00000106  00000+0 -24420-3 0  9991
2 25944  52.0015 119.7048 0001102  20.3951 150.9320 11.99979972166672
GLOBALSTAR M056         
1 25945U 99058C   25199.56006381 -.00000141  00000+0 -62265-3 0  9992
2 25945  51.9958 123.4533 0000575 272.3406 258.8677 12.04780964166452
GLOBALSTAR M031         
1 25946U 99058D   25199.91297087  .00000010  00000+0  10150-2 0  9995
2 25946  51.9981  12.9209 0000685 210.6316 300.9740 12.16038629168648
GLOBALSTAR M039         
1 25961U 99062A   25200.23289267 -.00000078  00000+0  14211-3 0  9994
2 25961  51.9825 171.1108 0002857  55.4406 304.6730 12.62330055184294
GLOBALSTAR M034         
1 25962U 99062B   25199.74351437 -.00000080  00000+0  15841-4 0  9991
2 25962  51.9881 289.3614 0014530 102.3584  19.4682 11.79446044142116
GLOBALSTAR M029         
1 25963U 99062C   25199.94515198 -.00000074  00000+0  14887-3 0  9991
2 25963  51.9825   9.2662 0002669 162.1355 359.7726 11.99898492172939
GLOBALSTAR M061         
1 25964U 99062D   25200.51086066 -.00000110  00000+0 -48817-3 0  9997
2 25964  51.9792 111.8285 0006610  25.8274 145.4094 11.76775926125273
